P/2011 S1 (Gibbs),e,2.6888,218.8978,192.5967,8.585824,0.0391770,0.20177811,131.2495,10/22.0/2023,2000,g  8.0,4.0
# From MPC 79022
P/2011 UA134 (Spacewatch-PANSTARRS),e,10.4404,40.4031,32.4114,5.610486,0.0741657,0.63006196,324.1170,10/22.0/2023,2000,g 17.5,4.0
# From MPC 77406
P/2011 V1 (Boattini),e,7.3727,46.8130,269.3465,3.858341,0.1300478,0.54956093,240.0952,10/22.0/2023,2000,g 15.5,4.0
# From MPC 82718
P/2011 W1 (PANSTARRS),e,3.7176,161.8308,282.8190,4.669645,0.0976738,0.28845849,60.6134,10/22.0/2023,2000,g 11.5,4.0
# From MPC 79342
P/2011 Y2 (Boattini),e,6.3833,309.3441,131.9703,6.235285,0.0633023,0.71086570,268.7630,10/22.0/2023,2000,g 15.0,4.0
# From MPEC 2022-K19
P/2012 B1 (PANSTARRS),e,7.6099,36.2163,162.2057,6.533749,0.0590147,0.40937033,222.1279,10/22.0/2023,2000,g  9.0,4.0
# From MPC 78590
P/2012 C3 (PANSTARRS),e,9.0920,135.3677,344.9542,9.748681,0.0323806,0.63011148,359.9758,10/06.0/2011,2000,g 13.0,4.0
# From MPC 84931
P/2012 F2 (PANSTARRS),e,14.6988,226.9594,33.2795,6.340199,0.0617376,0.54036294,237.9372,10/22.0/2023,2000,g 12.0,4.0
# From MPEC 2022-ED3
P/2012 G1 (PANSTARRS),e,12.1692,283.2601,266.0950,4.164718,0.1159647,0.32902716,129.5959,10/22.0/2023,2000,g 15.0,4.0
# From MPC 80898
P/2012 K3 (Gibbs),e,13.1870,125.8185,172.2259,3.629760,0.1425237,0.42204731,217.7708,10/22.0/2023,2000,g 15.0,4.0
# From MPC 88326
P/2012 NJ (La Sagra),e,84.5062,315.6194,338.4103,8.467651,0.0400000,0.84645909,165.8333,10/22.0/2023,2000,g 14.5,4.0
# From MPC 81470
P/2012 O1 (McNaught),e,7.4278,91.9576,238.3030,3.542120,0.1478458,0.59395759,250.4592,10/22.0/2023,2000,g 17.5,4.0
# From MPC 80899
P/2012 O2 (McNaught),e,24.4654,120.6810,183.4672,3.627328,0.1426671,0.53155633,232.6773,10/22.0/2023,2000,g 17.0,4.0
# From MPC 82320
P/2012 T2 (PANSTARRS),e,12.5700,73.8804,310.8345,5.724175,0.0719672,0.16252698,274.8199,10/22.0/2023,2000,g 10.0,4.0
# From MPC 80900
P/2012 T3 (PANSTARRS),e,9.5583,114.3644,195.5273,6.152411,0.0645857,0.61620470,270.3926,10/22.0/2023,2000,g 15.0,4.0
# From MPC 82720
P/2012 U2 (PANSTARRS),e,10.7636,185.3366,228.2936,7.128838,0.0517817,0.50048344,206.5016,10/22.0/2023,2000,g 12.5,4.0
# From MPC 84024
P/2012 US27 (Siding Spring),e,39.3666,49.2303,0.8357,5.163235,0.0840081,0.64842373,329.3227,10/22.0/2023,2000,g 13.5,4.0
# From MPC 82721
P/2012 WA34 (Lemmon-PANSTARRS),e,6.0790,93.7406,356.4785,4.677601,0.0974247,0.34341190,10.2328,10/22.0/2023,2000,g 13.5,4.0
# From MPC 82721
P/2013 AL76 (Catalina),e,44.8700,146.0069,27.0141,6.499234,0.0594855,0.68667950,236.7056,10/22.0/2023,2000,g 16.0,4.0
# From MPC 91612
P/2013 G1 (Kowalski),e,5.4570,221.3119,51.5118,6.901208,0.0543646,0.51043302,196.1614,10/22.0/2023,2000,g 11.0,4.0
# From MPC 84025
P/2013 G4 (PANSTARRS),e,5.9171,339.5990,214.6043,4.435902,0.1054948,0.40903420,51.6846,10/22.0/2023,2000,g 15.0,4.0
# From MPC 91613
P/2013 J2 (McNaught),e,15.5105,289.3537,37.8638,6.224322,0.0634696,0.65683562,235.0702,10/22.0/2023,2000,g 13.0,4.0
# From MPC 86229
P/2013 N3 (PANSTARRS),e,2.1709,17.5269,323.9539,7.398476,0.0489768,0.59242974,173.0316,10/22.0/2023,2000,g 13.0,4.0
# From MPC 85834
P/2013 N5 (PANSTARRS),e,23.4524,187.1736,176.9484,6.797026,0.0556193,0.73235137,208.9118,10/22.0/2023,2000,g 17.0,4.0
# From MPC 85834
P/2013 P1 (PANSTARRS),e,18.7105,160.6248,138.2490,8.586975,0.0391691,0.60370301,152.4142,10/22.0/2023,2000,g 12.0,4.0
# From MPEC 2022-V95
P/2013 R3 (Catalina-PANSTARRS),e,0.8650,342.0424,11.2848,3.031009,0.1867769,0.27556818,331.8835,10/22.0/2023,2000,g 14.0,4.0
# From unp
P/2013 R3-A (Catalina-PANSTARRS),e,0.8642,341.9973,11.3636,3.030765,0.1867994,0.27549915,331.9497,10/22.0/2023,2000,g  9.0,4.0
# From MPEC 2015-M77
P/2013 R3-B (Catalina-PANSTARRS),e,0.8654,342.0532,11.2984,3.030984,0.1867792,0.27554426,331.8786,10/22.0/2023,2000,g  9.0,4.0
# From MPC 85835
P/2013 T1 (PANSTARRS),e,24.2928,10.1082,346.1667,5.855381,0.0695619,0.62416520,259.0635,10/22.0/2023,2000,g 16.5,4.0
# From MPC 86643
P/2013 T2 (Schwartz),e,9.4536,0.8209,345.5814,3.492437,0.1510119,0.50076811,214.5859,10/22.0/2023,2000,g 16.0,4.0
# From MPC 91613
P/2013 W1 (PANSTARRS),e,4.6975,117.8296,1.2219,3.486564,0.1513937,0.59324485,172.0706,10/22.0/2023,2000,g 17.5,4.0
# From MPC101095
P/2013 YG46 (Spacewatch),e,7.8583,48.8442,242.6653,3.277820,0.1660835,0.45520964,47.9163,10/22.0/2023,2000,g 10.0,4.0
# From MPC 89728
P/2014 A2 (Hill),e,24.5534,106.6463,356.1414,5.925956,0.0683229,0.64615575,250.3008,10/22.0/2023,2000,g 15.0,4.0
# From MPC 92981
P/2014 A3 (PANSTARRS),e,13.7165,230.0761,214.1095,4.606985,0.0996733,0.24638705,18.1609,10/22.0/2023,2000,g 12.0,4.0
# From MPC102095
P/2014 C1 (TOTAS),e,2.6919,167.8836,23.9934,3.029277,0.1869371,0.45184829,307.8670,10/22.0/2023,2000,g 15.5,4.0
# From MPEC 2022-WD2
C/2014 F3 (Sheppard-Trujillo),e,6.5239,326.1033,4.8983,14.46597,0.0179136,0.60474677,15.6925,10/22.0/2023,2000,g  6.0,4.0
# From MPC 98560
P/2014 L2 (NEOWISE),e,5.1978,149.3618,182.7147,6.307005,0.0622256,0.64737119,210.2747,10/22.0/2023,2000,g 12.0,4.0
# From MPC 90769
P/2014 L3 (Hill),e,6.2649,115.5186,178.6970,8.181176,0.0421192,0.77200121,143.3275,10/22.0/2023,2000,g 16.0,4.0
# From MPC 91614
P/2014 M4 (PANSTARRS),e,3.3442,263.2117,148.0513,5.866083,0.0693716,0.59602506,223.0713,10/22.0/2023,2000,g 15.0,4.0
# From MPEC 2022-K19
P/2014 MG4 (Spacewatch-PANSTARRS),e,9.3648,311.7103,298.9880,5.013876,0.0877897,0.25875403,331.8024,10/22.0/2023,2000,g  9.5,4.0
# From MPC 98560
P/2014 O3 (PANSTARRS),e,7.7918,87.6325,204.7975,7.581475,0.0472143,0.38350411,164.2006,10/22.0/2023,2000,g 10.5,4.0
# From MPEC 2023-TM6
C/2014 OG392 (PANSTARRS),e,9.0329,145.8147,254.6811,12.25979,0.0229604,0.18651879,15.4666,10/22.0/2023,2000,g  6.0,4.0
# From MPC 91616
P/2014 U4 (PANSTARRS),e,6.4274,11.9211,347.8434,3.510107,0.1498731,0.46457021,146.9332,10/22.0/2023,2000,g 18.0,4.0
# From MPEC 2023-UF9
C/2014 UN271 (Bernardinelli-Bernstein),h,01/19.3460/2031,95.4326,189.9051,326.1617,1.002481,10.953019,2000,2.5,3.2
# From MPC 95211
P/2014 V1 (PANSTARRS),e,22.5192,166.2155,177.6591,5.479395,0.0768432,0.53413905,244.9982,10/22.0/2023,2000,g 14.0,4.0
# From MPC105542
P/2014 W4 (PANSTARRS),e,15.2872,33.3466,67.6202,6.584637,0.0583319,0.35413243,166.2435,10/22.0/2023,2000,g 11.0,4.0
# From MPC 94281
P/2014 X1 (Elenin),e,26.0517,61.5534,33.8902,6.202483,0.0638051,0.71020469,205.0705,10/22.0/2023,2000,g 15.0,4.0
# From MPC 92275
P/2015 A3 (PANSTARRS),e,172.5463,277.4007,249.5586,7.817449,0.0450927,0.85026435,142.8249,10/22.0/2023,2000,g 20.0,4.0
# From MPC 99270
P/2015 B1 (PANSTARRS),e,18.0648,352.8916,188.7994,9.484589,0.0337424,0.36627895,100.1150,10/22.0/2023,2000,g  8.5,4.0
# From MPC109141
P/2015 B4 (Lemmon-PANSTARRS),e,1.7656,266.0976,227.1588,8.511086,0.0396942,0.56127743,126.3187,10/22.0/2023,2000,g 11.0,4.0
# From MPC101096
P/2015 C1 (TOTAS-Gibbs),e,13.9366,348.7868,178.0335,6.568832,0.0585426,0.56224647,181.7296,10/22.0/2023,2000,g 12.5,4.0
# From MPC109141
P/2015 D5 (Kowalski),e,20.5467,74.0829,39.6048,8.948487,0.0368197,0.49075571,128.4399,10/22.0/2023,2000,g  9.0,4.0
# From MPC 96866
P/2015 D6 (Lemmon-PANSTARRS),e,20.2159,45.7806,124.9599,7.131291,0.0517549,0.36184506,157.3912,10/22.0/2023,2000,g 10.5,4.0
# From MPEC 2021-P47
P/2015 HG16 (PANSTARRS),e,18.9917,57.0699,46.8330,4.802742,0.0936419,0.35041277,326.2853,10/22.0/2023,2000,g 12.5,4.0
# From MPC 95213
P/2015 K5 (PANSTARRS),e,39.9384,134.2530,106.2491,6.727541,0.0564832,0.55148984,173.3183,10/22.0/2023,2000,g 13.5,4.0
# From MPC107684
P/2015 M2 (PANSTARRS),e,3.9684,86.7040,225.9567,7.248837,0.0505012,0.17890323,149.6203,10/22.0/2023,2000,g  8.5,4.0
# From MPC 99819
P/2015 P4 (PANSTARRS),e,8.7196,104.7287,280.6563,6.046616,0.0662881,0.58577402,187.3696,10/22.0/2023,2000,g 14.0,4.0
# From MPEC 2022-K19
P/2015 PD229 (Cameron-ISON),e,2.0235,342.7240,352.7119,7.198217,0.0510348,0.32676978,152.5057,10/22.0/2023,2000,g 11.5,2.0
# From MPC 96867
P/2015 Q2 (Pimentel),e,146.5599,228.5614,244.6798,7.352889,0.0494330,0.75105239,146.5455,10/22.0/2023,2000,g 15.5,4.0
# From MPC 98562
P/2015 R1 (PANSTARRS),e,22.6888,48.3743,300.5511,5.881338,0.0691019,0.63394752,209.6763,10/22.0/2023,2000,g 14.0,4.0
# From MPC 95734
P/2015 R2 (PANSTARRS),e,15.4819,168.6163,149.8555,4.483846,0.1038073,0.45252106,316.3329,10/22.0/2023,2000,g 14.5,4.0
# From MPC102953
P/2015 TO19 (Lemmon-PANSTARRS),e,6.5032,321.6650,89.2179,4.549883,0.1015556,0.35965439,282.5017,10/22.0/2023,2000,g 14.0,4.0
# From MPC110080
P/2015 TP200 (LINEAR),e,8.7833,6.9914,82.4553,7.262559,0.0503581,0.53685706,128.2785,10/22.0/2023,2000,g 11.0,4.0
# From MPC101098
P/2015 W2 (Catalina),e,11.6131,294.1650,117.5600,7.290724,0.0500666,0.63558730,147.0757,10/22.0/2023,2000,g 13.0,4.0
# From MPEC 2023-J29
P/2015 X3 (PANSTARRS),e,24.4181,77.2569,306.8913,5.001852,0.0881065,0.44014237,263.3430,10/22.0/2023,2000,g 15.0,4.0
# From MPC115881
P/2015 X6 (PANSTARRS),e,4.5653,106.9376,329.8068,2.751547,0.2159428,0.17348840,237.3838,10/22.0/2023,2000,g 16.0,4.0
# From MPC100282
P/2016 A2 (Christensen),e,26.4052,291.5952,141.3088,4.753778,0.0950924,0.27117703,290.4024,10/22.0/2023,2000,g 11.5,4.0
# From MPEC 2022-OB6
P/2016 A3 (PANSTARRS),e,8.5129,187.1972,340.8460,7.874809,0.0446009,0.38618308,105.7420,10/22.0/2023,2000,g 10.0,4.0
# From MPC102098
P/2016 A7 (PANSTARRS),e,16.6077,221.4608,352.5001,5.036079,0.0872098,0.56510994,244.6432,10/22.0/2023,2000,g 16.0,4.0
# From MPEC 2021-P47
P/2016 G1 (PANSTARRS),e,10.9713,204.0159,111.1431,2.583503,0.2373508,0.21038351,224.1946,10/22.0/2023,2000,g 14.0,4.0
# From MPEC 2017-D91
P/2016 J1-A (PANSTARRS),e,14.3267,199.9161,47.3659,3.177737,0.1739911,0.22740481,105.5927,10/22.0/2023,2000,g 16.5,4.0
# From MPEC 2017-A77
P/2016 J1-B (PANSTARRS),e,14.3295,199.9214,47.2576,3.177378,0.1740207,0.22725203,105.7479,10/22.0/2023,2000,g 17.0,4.0
# From MPC102099
P/2016 P1 (PANSTARRS),e,24.3918,319.5823,270.4999,3.201170,0.1720842,0.28870267,148.4786,10/22.0/2023,2000,g 15.0,4.0
# From MPEC 2023-R20
